stk.v.4.3 

BEGIN Ephemeris 
 
NumberOfEphemerisPoints		146 
ScenarioEpoch	    2 Jan 2020 12:43:42.641779482 
InterpolationMethod		Lagrange 
InterpolationOrder		5 
CentralBody				Earth 
CoordinateSystem			TEME 
CoordinateSystemEpoch	  2 Jan 2020 12:43:42.641779482 
DistanceUnit			Kilometers 
 
EphemerisTimePosVel 
 
       0.00000000   -6890.93860797   -1939.73559320       0.04114381  0.136002676 -0.448475205  7.448869932
 END Ephemeris 
